GPS BIIA-10 (PRN 32)    
1 20959U 90103A   13025.82995039  .00000070  00000-0  10000-3 0  8501
2 20959  54.4278 229.6289 0117790 335.4404  24.0591  2.00551378162352
GPS BIIA-14 (PRN 26)    
1 22014U 92039A   13027.12333861 -.00000015  00000-0  10000-3 0  6428
2 22014  56.1743 289.8082 0208470  69.6448 292.6480  2.00565795144113
GPS BIIA-15 (PRN 27)    
1 22108U 92058A   13027.22998217 -.00000073  00000-0  10000-3 0  5665
2 22108  56.2520 342.7159 0222161 304.2674  53.6466  2.00570062149293
GPS BIIA-21 (PRN 09)    
1 22700U 93042A   13027.71474410  .00000046  00000-0  10000-3 0  8892
2 22700  56.4042 344.2689 0167761  93.9845 267.9396  2.00663333143473
GPS BIIA-22 (PRN 30)    
1 22779U 93054A   13026.99540219 -.00000027  00000-0  10000-3 0  5663
2 22779  55.1592  38.8360 0106091  92.0839 269.1781  2.00571185142204
GPS BIIA-23 (PRN 04)    
1 22877U 93068A   13026.39544586  .00000014  00000-0  10000-3 0  2451
2 22877  53.7308 164.4713 0101924  54.1161 306.7793  2.00556382141085
GPS BIIA-24 (PRN 06)    
1 23027U 94016A   13027.09496820 -.00000004  00000-0  10000-3 0  2032
2 23027  53.8608 101.0831 0076457 336.0902  23.6148  2.00561795138407
GPS BIIA-25 (PRN 03)    
1 23833U 96019A   13027.11640168 -.00000005  00000-0  10000-3 0  4012
2 23833  53.4779  96.5820 0157992  72.8449 288.9414  2.00563793123381
GPS BIIA-26 (PRN 10)    
1 23953U 96041A   13026.47866142  .00000068  00000-0  10000-3 0  8887
2 23953  54.1015 225.6653 0121049  44.8717 316.1418  2.00553648121165
GPS BIIR-2  (PRN 13)    
1 24876U 97035A   13026.98009524 -.00000016  00000-0  10000-3 0  3592
2 24876  56.3200 290.2099 0046767 120.0365 240.4972  2.00576058113706
GPS BIIA-28 (PRN 08)    
1 25030U 97067A   13026.61524763 -.00000072  00000-0  10000-3 0  3050
2 25030  57.1990 350.7655 0128368 196.0658 163.5236  2.00571099111593
GPS BIIR-3  (PRN 11)    
1 25933U 99055A   13027.23338727  .00000003  00000-0  10000-3 0  7959
2 25933  50.9154 148.0760 0136472  65.3162 296.0664  2.00561374 97524
GPS BIIR-4  (PRN 20)    
1 26360U 00025A   13026.85219993  .00000065  00000-0  10000-3 0  8851
2 26360  53.2106 221.7215 0053560  72.9294 287.6893  2.00545859 93214
GPS BIIR-5  (PRN 28)    
1 26407U 00040A   13027.19708937 -.00000016  00000-0  10000-3 0  8373
2 26407  56.2586  47.6930 0188208 257.6195 100.3235  2.00568243 91895
GPS BIIR-6  (PRN 14)    
1 26605U 00071A   13026.79313140 -.00000014  00000-0  10000-3 0  8525
2 26605  55.9054 288.5890 0069253 245.5136 113.8310  2.00561231 89486
GPS BIIR-7  (PRN 18)    
1 26690U 01004A   13026.66809912  .00000065  00000-0  10000-3 0  7310
2 26690  53.1730 224.7955 0138345 238.6720 120.0023  2.00553228 87897
GPS BIIR-8  (PRN 16)    
1 27663U 03005A   13027.03609863 -.00000016  00000-0  10000-3 0  1624
2 27663  56.3507  47.3340 0068158 359.9694   0.0886  2.00576625 73258
GPS BIIR-9  (PRN 21)    
1 27704U 03010A   13026.58419628  .00000015  00000-0  10000-3 0   451
2 27704  53.3704 164.7138 0198887 235.3288 122.7418  2.00554284 72033
GPS BIIR-10 (PRN 22)    
1 28129U 03058A   13027.70979808  .00000002  00000-0  10000-3 0  6183
2 28129  53.0426 224.9148 0063461 244.6114 114.7696  2.00566893 66764
GPS BIIR-11 (PRN 19)    
1 28190U 04009A   13027.15240186 -.00000002  00000-0  10000-3 0  6122
2 28190  55.1095 109.8058 0087121  14.9700 345.3284  2.00565702 64925
GPS BIIR-12 (PRN 23)    
1 28361U 04023A   13026.94096586 -.00000009  00000-0  10000-3 0  4313
2 28361  54.8456 285.3431 0081888 194.9478 164.8824  2.00552609 63006
GPS BIIR-13 (PRN 02)    
1 28474U 04045A   13026.44196427  .00000014  00000-0  10000-3 0  3181
2 28474  53.7850 163.5181 0120032 207.0233 152.3045  2.00572800 60353
GPS BIIRM-1 (PRN 17)    
1 28874U 05038A   13026.79860178 -.00000005  00000-0  10000-3 0  5775
2 28874  55.2657 106.8210 0081769 231.5013 127.8083  2.00550770 53783
GPS BIIRM-2 (PRN 31)    
1 29486U 06042A   13027.40726294  .00001073  00000-0  10000-3 0  9690
2 29486  56.2016 345.8879 0082647 312.9142  46.3973  2.00570391 46508
GPS BIIRM-3 (PRN 12)    
1 29601U 06052A   13026.84959309 -.00000017  00000-0  10000-3 0  9993
2 29601  56.3063  46.2901 0041382   5.0266 355.0740  2.00567573 45392
GPS BIIRM-4 (PRN 15)    
1 32260U 07047A   13026.66125938 -.00000007  00000-0  00000+0 0  7066
2 32260  53.9948 283.1030 0051882   4.2439 355.8715  2.00560625 38782
GPS BIIRM-5 (PRN 29)    
1 32384U 07062A   13026.47832534 -.00000008  00000-0  10000-3 0  7444
2 32384  55.2987 107.3325 0020888 293.6913  66.1482  2.00558302 37505
GPS BIIRM-6 (PRN 07)    
1 32711U 08012A   13027.07132152 -.00000074  00000-0  10000-3 0  5025
2 32711  55.9082 345.6729 0061190 195.1862 164.6285  2.00559483 35725
GPS BIIRM-8 (PRN 05)    
1 35752U 09043A   13027.04034130  .00000067  00000-0  10000-3 0  2569
2 35752  54.3973 224.4877 0029997  14.2679 345.8518  2.00578599 25303
GPS BIIF-1  (PRN 25)    
1 36585U 10022A   13026.88980090 -.00000021  00000-0  10000-3 0   726
2 36585  55.6670  44.1790 0018897  27.1921 332.9684  2.00571971 19544
GPS BIIF-2  (PRN 01)    
1 37753U 11036A   13027.26668801  .00000022  00000-0  00000+0 0  5344
2 37753  55.0140 164.5750 0014366  20.1455 339.8689  2.00559350 11239
GPS BIIF-3  (PRN 24)    
1 38833U 12053A   13026.75502916 -.00000077  00000-0  00000+0 0   819
2 38833  54.9648 344.1662 0005563 335.8992  24.0733  2.00559506  2280
